{
  "type": "FeatureCollection",
  "features": [
    {
      "type": "Feature",
      "properties": {
        "norad_id": 33860,
        "name": "IRIDIUM 33 DEB",
        "group": "iridium-33-debris",
        "lat": -86.36485352149116,
        "lon": -61.524291747873676,
        "alt_km": 673.9434956216182,
        "timestamp": "2025-12-21T16:47:55.123327+00:00",
        "meta_object_name": "IRIDIUM 33 DEB",
        "meta_object_id": "1997-051AD",
        "meta_epoch": "2025-12-21T13:01:46.627392",
        "meta_mean_motion": 14.67463908,
        "meta_eccentricity": 0.000638,
        "meta_inclination": 86.3822,
        "meta_ra_of_asc_node": 23.3411,
        "meta_arg_of_pericenter": 324.1868,
        "meta_mean_anomaly": 197.1056,
        "meta_ephemeris_type": 0,
        "meta_classification_type": "U",
        "meta_norad_cat_id": 33860,
        "meta_element_set_no": 999,
        "meta_rev_at_epoch": 88851,
        "meta_bstar": 0.00083483,
        "meta_mean_motion_dot": 4.749e-05,
        "meta_mean_motion_ddot": 0,
        "tle_line1": "1 33860U 97051AD  25355.54290078  .00004749  00000+0  83483-3 0  9999",
        "tle_line2": "2 33860  86.3822  23.3411 0006380 324.1868 197.1056 14.67463908888511"
      },
      "geometry": {
        "type": "Point",
        "coordinates": [
          -61.524291747873676,
          -86.36485352149116
        ]
      }
    },
    {
      "type": "Feature",
      "properties": {
        "norad_id": 33862,
        "name": "IRIDIUM 33 DEB",
        "group": "iridium-33-debris",
        "lat": 13.687807976858597,
        "lon": 34.455527005021764,
        "alt_km": 629.9586659116221,
        "timestamp": "2025-12-21T16:47:55.123338+00:00",
        "meta_object_name": "IRIDIUM 33 DEB",
        "meta_object_id": "1997-051AF",
        "meta_epoch": "2025-12-21T03:56:03.630624",
        "meta_mean_motion": 14.69594486,
        "meta_eccentricity": 0.00526121,
        "meta_inclination": 86.4078,
        "meta_ra_of_asc_node": 33.8153,
        "meta_arg_of_pericenter": 40.9364,
        "meta_mean_anomaly": 19.2005,
        "meta_ephemeris_type": 0,
        "meta_classification_type": "U",
        "meta_norad_cat_id": 33862,
        "meta_element_set_no": 999,
        "meta_rev_at_epoch": 88947,
        "meta_bstar": 0.00086312918,
        "meta_mean_motion_dot": 5.261e-05,
        "meta_mean_motion_ddot": 0,
        "tle_line1": "1 33862U 97051AF  25355.16393091  .00005261  00000+0  86313-3 0  9993",
        "tle_line2": "2 33862  86.4078  33.8153 0052612  40.9364  19.2005 14.69594486889471"
      },
      "geometry": {
        "type": "Point",
        "coordinates": [
          34.455527005021764,
          13.687807976858597
        ]
      }
    },
    {
      "type": "Feature",
      "properties": {
        "norad_id": 33866,
        "name": "IRIDIUM 33 DEB",
        "group": "iridium-33-debris",
        "lat": 85.19899176069352,
        "lon": -141.1456211693515,
        "alt_km": 736.2425934106122,
        "timestamp": "2025-12-21T16:47:55.123349+00:00",
        "meta_object_name": "IRIDIUM 33 DEB",
        "meta_object_id": "1997-051AK",
        "meta_epoch": "2025-12-21T06:30:23.838336",
        "meta_mean_motion": 14.25298734,
        "meta_eccentricity": 0.0115015,
        "meta_inclination": 86.3001,
        "meta_ra_of_asc_node": 89.4265,
        "meta_arg_of_pericenter": 134.3497,
        "meta_mean_anomaly": 280.5396,
        "meta_ephemeris_type": 0,
        "meta_classification_type": "U",
        "meta_norad_cat_id": 33866,
        "meta_element_set_no": 999,
        "meta_rev_at_epoch": 86932,
        "meta_bstar": 0.00042898,
        "meta_mean_motion_dot": 1.102e-05,
        "meta_mean_motion_ddot": 0,
        "tle_line1": "1 33866U 97051AK  25355.27110924  .00001102  00000+0  42898-3 0  9991",
        "tle_line2": "2 33866  86.3001  89.4265 0115015 134.3497 280.5396 14.25298734869320"
      },
      "geometry": {
        "type": "Point",
        "coordinates": [
          -141.1456211693515,
          85.19899176069352
        ]
      }
    },
    {
      "type": "Feature",
      "properties": {
        "norad_id": 33867,
        "name": "IRIDIUM 33 DEB",
        "group": "iridium-33-debris",
        "lat": -23.253812478963468,
        "lon": -16.1782747461438,
        "alt_km": 315.0598777694195,
        "timestamp": "2025-12-21T16:47:55.123360+00:00",
        "meta_object_name": "IRIDIUM 33 DEB",
        "meta_object_id": "1997-051AL",
        "meta_epoch": "2025-12-20T00:00:24.546240",
        "meta_mean_motion": 15.83320916,
        "meta_eccentricity": 0.00135723,
        "meta_inclination": 86.3644,
        "meta_ra_of_asc_node": 346.2932,
        "meta_arg_of_pericenter": 95.1198,
        "meta_mean_anomaly": 265.1629,
        "meta_ephemeris_type": 0,
        "meta_classification_type": "U",
        "meta_norad_cat_id": 33867,
        "meta_element_set_no": 999,
        "meta_rev_at_epoch": 89625,
        "meta_bstar": 0.0064207293,
        "meta_mean_motion_dot": 0.01574163,
        "meta_mean_motion_ddot": 0,
        "tle_line1": "1 33867U 97051AL  25354.00028410  .01574163  00000+0  64207-2 0  9990",
        "tle_line2": "2 33867  86.3644 346.2932 0013572  95.1198 265.1629 15.83320916896259"
      },
      "geometry": {
        "type": "Point",
        "coordinates": [
          -16.1782747461438,
          -23.253812478963468
        ]
      }
    },
    {
      "type": "Feature",
      "properties": {
        "norad_id": 33870,
        "name": "IRIDIUM 33 DEB",
        "group": "iridium-33-debris",
        "lat": 44.20975934060864,
        "lon": -129.1165489567326,
        "alt_km": 720.0422173608376,
        "timestamp": "2025-12-21T16:47:55.123371+00:00",
        "meta_object_name": "IRIDIUM 33 DEB",
        "meta_object_id": "1997-051AP",
        "meta_epoch": "2025-12-21T02:58:57.296064",
        "meta_mean_motion": 14.45889028,
        "meta_eccentricity": 0.00222885,
        "meta_inclination": 86.3739,
        "meta_ra_of_asc_node": 54.6669,
        "meta_arg_of_pericenter": 151.351,
        "meta_mean_anomaly": 229.7461,
        "meta_ephemeris_type": 0,
        "meta_classification_type": "U",
        "meta_norad_cat_id": 33870,
        "meta_element_set_no": 999,
        "meta_rev_at_epoch": 88258,
        "meta_bstar": 0.00047353054,
        "meta_mean_motion_dot": 1.707e-05,
        "meta_mean_motion_ddot": 0,
        "tle_line1": "1 33870U 97051AP  25355.12427426  .00001707  00000+0  47353-3 0  9990",
        "tle_line2": "2 33870  86.3739  54.6669 0022288 151.3510 229.7461 14.45889028882584"
      },
      "geometry": {
        "type": "Point",
        "coordinates": [
          -129.1165489567326,
          44.20975934060864
        ]
      }
    },
    {
      "type": "Feature",
      "properties": {
        "norad_id": 33881,
        "name": "IRIDIUM 33 DEB",
        "group": "iridium-33-debris",
        "lat": -9.29807324215543,
        "lon": 102.2553663090448,
        "alt_km": 747.2633352172115,
        "timestamp": "2025-12-21T16:47:55.123383+00:00",
        "meta_object_name": "IRIDIUM 33 DEB",
        "meta_object_id": "1997-051BA",
        "meta_epoch": "2025-12-21T08:54:02.892384",
        "meta_mean_motion": 14.56711951,
        "meta_eccentricity": 0.0061244,
        "meta_inclination": 86.3865,
        "meta_ra_of_asc_node": 102.9912,
        "meta_arg_of_pericenter": 146.8792,
        "meta_mean_anomaly": 279.602,
        "meta_ephemeris_type": 0,
        "meta_classification_type": "U",
        "meta_norad_cat_id": 33881,
        "meta_element_set_no": 999,
        "meta_rev_at_epoch": 87626,
        "meta_bstar": 0.0014451,
        "meta_mean_motion_dot": 6.645e-05,
        "meta_mean_motion_ddot": 0,
        "tle_line1": "1 33881U 97051BA  25355.37086681  .00006645  00000+0  14451-2 0  9991",
        "tle_line2": "2 33881  86.3865 102.9912 0061244 146.8792 279.6020 14.56711951876264"
      },
      "geometry": {
        "type": "Point",
        "coordinates": [
          102.2553663090448,
          -9.29807324215543
        ]
      }
    },
    {
      "type": "Feature",
      "properties": {
        "norad_id": 33884,
        "name": "IRIDIUM 33 DEB",
        "group": "iridium-33-debris",
        "lat": -69.38698105436806,
        "lon": -164.50765487741072,
        "alt_km": 639.3760160410284,
        "timestamp": "2025-12-21T16:47:55.123394+00:00",
        "meta_object_name": "IRIDIUM 33 DEB",
        "meta_object_id": "1997-051BD",
        "meta_epoch": "2025-12-21T09:23:30.185376",
        "meta_mean_motion": 14.77584501,
        "meta_eccentricity": 0.0009051,
        "meta_inclination": 86.3691,
        "meta_ra_of_asc_node": 5.9125,
        "meta_arg_of_pericenter": 289.7226,
        "meta_mean_anomaly": 119.4143,
        "meta_ephemeris_type": 0,
        "meta_classification_type": "U",
        "meta_norad_cat_id": 33884,
        "meta_element_set_no": 999,
        "meta_rev_at_epoch": 88975,
        "meta_bstar": 0.0011814,
        "meta_mean_motion_dot": 8.471e-05,
        "meta_mean_motion_ddot": 0,
        "tle_line1": "1 33884U 97051BD  25355.39132159  .00008471  00000+0  11814-2 0  9997",
        "tle_line2": "2 33884  86.3691   5.9125 0009051 289.7226 119.4143 14.77584501889756"
      },
      "geometry": {
        "type": "Point",
        "coordinates": [
          -164.50765487741072,
          -69.38698105436806
        ]
      }
    }
  ]
}